KZ-11 R/B               
1 69628U 26138H   26191.96318840  .00788390  97052-5  78775-3 0  9999
2 69628  55.1536 176.5360 0388340 138.7737 224.3326 15.40134767  3595
CENTISPACE-1 GROUP 05 O*
1 69636U 26138J   26192.49849381 -.00000307  00000+0 -77573-4 0  9990
2 69636  55.1383 191.3451 0009375 336.9016  23.1536 14.15842886  3430
VICTUS HAZE PUMA        
1 69646U 26142A   26192.49493289  .00002368  00000+0  10967-3 0  9998
2 69646  97.4474  89.8413 0025085 279.6701  80.1701 15.20831920  3363
HOKUSHIN-1              
1 69648U 98067YH  26191.46030940  .00017360  00000+0  30219-3 0  9992
2 69648  51.6308 184.7285 0006137 312.4876  47.5594 15.50847781  3262
STARLINK-37656          
1 69649U 26143A   26192.50002315  .00116512  00000+0  21153-2 0  9995
2 69649  97.2861 236.3477 0000882  98.4745  68.3785 15.49149210  4362
STARLINK-37646          
1 69650U 26143B   26192.50002315 -.03681577  00000+0 -70378-1 0  9992
2 69650  97.2853 236.5266 0003115  87.0877 128.5240 15.52351038  4367
STARLINK-37749          
1 69651U 26143C   26192.50002315  .00120402  00000+0  21890-2 0  9999
2 69651  97.2854 236.5055 0000753 129.5229  49.8554 15.49094497  4365
STARLINK-37819          
1 69652U 26143D   26192.50002315  .00118022  00000+0  21435-2 0  9990
2 69652  97.2853 236.4793 0001463  68.4126  46.5019 15.49133289  4362
STARLINK-37729          
1 69653U 26143E   26192.08206573  .00313577  00000+0  14329-2 0  9992
2 69653  97.2839 236.2355 0002475 167.2124 192.9209 15.82934122  4267
STARLINK-37838          
1 69654U 26143F   26192.50002315 -.01893106  00000+0 -34772-1 0  9995
2 69654  97.2839 236.5532 0001829  89.2686 186.2102 15.52727542  4368
STARLINK-37884          
1 69655U 26143G   26192.50002315  .00114634  00000+0  20822-2 0  9997
2 69655  97.2853 236.4597 0001116  89.5137 338.8139 15.49142631  4369
STARLINK-37876          
1 69656U 26143H   26192.50002315 -.03049761  00000+0 -59148-1 0  9993
2 69656  97.2847 236.5520 0002091 114.7267 160.9838 15.51845865  4270
STARLINK-37784          
1 69657U 26143J   26192.50002315  .00110833  00000+0  20138-2 0  9996
2 69657  97.2853 236.4771 0001399  72.0518  37.8882 15.49149144  4275
STARLINK-37851          
1 69658U 26143K   26192.50002315  .00109442  00000+0  19911-2 0  9998
2 69658  97.2847 236.5421 0001059  92.6084 172.9500 15.49116715  4266
STARLINK-37229          
1 69659U 26143L   26192.50002315  .00097182  00000+0  17693-2 0  9991
2 69659  97.2904 236.4963 0001538  99.1445  57.7163 15.49144487  4314
STARLINK-37556          
1 69660U 26143M   26192.50002315 -.00551059  00000+0 -10719-1 0  9994
2 69660  97.2852 236.5235 0001551  83.9150 136.7149 15.49551249  4310
STARLINK-37867          
1 69661U 26143N   26192.50002315  .00111531  00000+0  20294-2 0  9990
2 69661  97.2850 236.5426 0001891  83.0238 181.0605 15.49104280  4270
STARLINK-37852          
1 69662U 26143P   26192.50002315  .00111346  00000+0  20238-2 0  9993
2 69662  97.2851 236.4665 0001201  87.1893 359.8584 15.49136745  4275
STARLINK-37554          
1 69663U 26143Q   26192.50002315  .00109776  00000+0  19974-2 0  9993
2 69663  97.2850 236.5215 0001010  75.0307 136.3269 15.49112291  4314
STARLINK-37830          
1 69664U 26143R   26192.50002315  .00109914  00000+0  19977-2 0  9991
2 69664  97.2854 236.4825 0001604  93.9677  33.0793 15.49143232  4261
STARLINK-37837          
1 69665U 26143S   26192.50002315 -.02927837  00000+0 -54595-1 0  9992
2 69665  97.2849 236.5477 0001129  62.3963 204.0871 15.52760386  4277
STARLINK-37943          
1 69666U 26143T   26192.50002315  .00109240  00000+0  19861-2 0  9997
2 69666  97.2854 236.4840 0001644  80.7503  49.2424 15.49137453  4275
STARLINK-37941          
1 69667U 26143U   26192.50002315  .00115593  00000+0  21015-2 0  9990
2 69667  97.2856 236.5134 0001482  67.8961 132.4918 15.49113587  4274
STARLINK-37930          
1 69668U 26143V   26192.50002315  .00110563  00000+0  20112-2 0  9990
2 69668  97.2855 236.5172 0001072  89.0475 114.3874 15.49117611  4268
STARLINK-37945          
1 69669U 26143W   26192.50002315 -.00563974  00000+0 -10985-1 0  9997
2 69669  97.2851 236.5458 0001716  79.2496 195.8683 15.49558003  4278
STARLINK-37948          
1 69670U 26143X   26192.36937374  .00026704  00000+0  49085-3 0  9993
2 69670  97.2859 236.3034 0000813 334.0346  26.0865 15.49197615  4229
STARLINK-37949          
1 69671U 26143Y   26192.50002315  .00107785  00000+0  19593-2 0  9997
2 69671  97.2853 236.4909 0000552  60.5549  83.6608 15.49147789  4278
STARLINK-37946          
1 69672U 26143Z   26192.50002315  .00111381  00000+0  20251-2 0  9998
2 69672  97.2851 236.5257 0001487  73.3214 148.6221 15.49127901  4270
TJS-26A                 
1 69674U 26144A   26191.73075990 -.00000335  00000+0  00000+0 0  9998
2 69674   6.9565 323.2282 0003513 343.7960 352.1905  1.00265482   172
CZ-7A R/B               
1 69675U 26144B   26192.19378919  .00440868 -53255-6  53892-3 0  9994
2 69675  19.4569 316.9057 7132891 193.2824 126.9869  2.54485030   462
