OBJECT_NAME,OBJECT_ID,EPOCH,MEAN_MOTION,ECCENTRICITY,INCLINATION,RA_OF_ASC_NODE,ARG_OF_PERICENTER,MEAN_ANOMALY,EPHEMERIS_TYPE,CLASSIFICATION_TYPE,NORAD_CAT_ID,ELEMENT_SET_NO,REV_AT_EPOCH,BSTAR,MEAN_MOTION_DOT,MEAN_MOTION_DDOT
KZ-11 R/B,2026-138H,2026-07-10T23:06:59.477760,15.40134767,.038834,55.1536,176.5360,138.7737,224.3326,0,U,69628,999,359,.78775E-3,.78839E-2,.97052E-5
CENTISPACE-1 GROUP 05 OBJECT J,2026-138J,2026-07-11T11:57:49.865184,14.15842886,.0009375,55.1383,191.3451,336.9016,23.1536,0,U,69636,999,343,-.77573E-4,-.307E-5,0
VICTUS HAZE PUMA,2026-142A,2026-07-11T11:52:42.201696,15.20831920,.0025085,97.4474,89.8413,279.6701,80.1701,0,U,69646,999,336,.10967E-3,.2368E-4,0
HOKUSHIN-1,1998-067YH,2026-07-10T11:02:50.732160,15.50847781,.00061379,51.6308,184.7285,312.4876,47.5594,0,U,69648,999,326,.30218505E-3,.1736E-3,0
STARLINK-37656,2026-143A,2026-07-11T12:00:02.000160,15.49149210,.0000882,97.2861,236.3477,98.4745,68.3785,0,U,69649,999,436,.21153E-2,.116512E-2,0
STARLINK-37646,2026-143B,2026-07-11T12:00:02.000160,15.52351038,.0003115,97.2853,236.5266,87.0877,128.5240,0,U,69650,999,436,-.70378E-1,-.3681577E-1,0
STARLINK-37749,2026-143C,2026-07-11T12:00:02.000160,15.49094497,.0000753,97.2854,236.5055,129.5229,49.8554,0,U,69651,999,436,.2189E-2,.120402E-2,0
STARLINK-37819,2026-143D,2026-07-11T12:00:02.000160,15.49133289,.0001463,97.2853,236.4793,68.4126,46.5019,0,U,69652,999,436,.21435E-2,.118022E-2,0
STARLINK-37729,2026-143E,2026-07-11T01:58:10.479072,15.82934122,.0002475,97.2839,236.2355,167.2124,192.9209,0,U,69653,999,426,.14329E-2,.313577E-2,0
STARLINK-37838,2026-143F,2026-07-11T12:00:02.000160,15.52727542,.0001829,97.2839,236.5532,89.2686,186.2102,0,U,69654,999,436,-.34772E-1,-.1893106E-1,0
STARLINK-37884,2026-143G,2026-07-11T12:00:02.000160,15.49142631,.0001116,97.2853,236.4597,89.5137,338.8139,0,U,69655,999,436,.20822E-2,.114634E-2,0
STARLINK-37876,2026-143H,2026-07-11T12:00:02.000160,15.51845865,.0002091,97.2847,236.5520,114.7267,160.9838,0,U,69656,999,427,-.59148E-1,-.3049761E-1,0
STARLINK-37784,2026-143J,2026-07-11T12:00:02.000160,15.49149144,.0001399,97.2853,236.4771,72.0518,37.8882,0,U,69657,999,427,.20138E-2,.110833E-2,0
STARLINK-37851,2026-143K,2026-07-11T12:00:02.000160,15.49116715,.0001059,97.2847,236.5421,92.6084,172.9500,0,U,69658,999,426,.19911E-2,.109442E-2,0
STARLINK-37229,2026-143L,2026-07-11T12:00:02.000160,15.49144487,.0001538,97.2904,236.4963,99.1445,57.7163,0,U,69659,999,431,.17693E-2,.97182E-3,0
STARLINK-37556,2026-143M,2026-07-11T12:00:02.000160,15.49551249,.0001551,97.2852,236.5235,83.9150,136.7149,0,U,69660,999,431,-.10719E-1,-.551059E-2,0
STARLINK-37867,2026-143N,2026-07-11T12:00:02.000160,15.49104280,.0001891,97.2850,236.5426,83.0238,181.0605,0,U,69661,999,427,.20294E-2,.111531E-2,0
STARLINK-37852,2026-143P,2026-07-11T12:00:02.000160,15.49136745,.0001201,97.2851,236.4665,87.1893,359.8584,0,U,69662,999,427,.20238E-2,.111346E-2,0
STARLINK-37554,2026-143Q,2026-07-11T12:00:02.000160,15.49112291,.000101,97.2850,236.5215,75.0307,136.3269,0,U,69663,999,431,.19974E-2,.109776E-2,0
STARLINK-37830,2026-143R,2026-07-11T12:00:02.000160,15.49143232,.0001604,97.2854,236.4825,93.9677,33.0793,0,U,69664,999,426,.19977E-2,.109914E-2,0
STARLINK-37837,2026-143S,2026-07-11T12:00:02.000160,15.52760386,.0001129,97.2849,236.5477,62.3963,204.0871,0,U,69665,999,427,-.54595E-1,-.2927837E-1,0
STARLINK-37943,2026-143T,2026-07-11T12:00:02.000160,15.49137453,.0001644,97.2854,236.4840,80.7503,49.2424,0,U,69666,999,427,.19861E-2,.10924E-2,0
STARLINK-37941,2026-143U,2026-07-11T12:00:02.000160,15.49113587,.0001482,97.2856,236.5134,67.8961,132.4918,0,U,69667,999,427,.21015E-2,.115593E-2,0
STARLINK-37930,2026-143V,2026-07-11T12:00:02.000160,15.49117611,.0001072,97.2855,236.5172,89.0475,114.3874,0,U,69668,999,426,.20112E-2,.110563E-2,0
STARLINK-37945,2026-143W,2026-07-11T12:00:02.000160,15.49558003,.0001716,97.2851,236.5458,79.2496,195.8683,0,U,69669,999,427,-.10985E-1,-.563974E-2,0
STARLINK-37948,2026-143X,2026-07-11T08:51:53.891136,15.49197615,.0000813,97.2859,236.3034,334.0346,26.0865,0,U,69670,999,422,.49085E-3,.26704E-3,0
STARLINK-37949,2026-143Y,2026-07-11T12:00:02.000160,15.49147789,.0000552,97.2853,236.4909,60.5549,83.6608,0,U,69671,999,427,.19593E-2,.107785E-2,0
STARLINK-37946,2026-143Z,2026-07-11T12:00:02.000160,15.49127901,.0001487,97.2851,236.5257,73.3214,148.6221,0,U,69672,999,427,.20251E-2,.111381E-2,0
TJS-26A,2026-144A,2026-07-10T17:32:17.655360,1.00265482,.0003513,6.9565,323.2282,343.7960,352.1905,0,U,69674,999,17,0,-.335E-5,0
CZ-7A R/B,2026-144B,2026-07-11T04:39:03.386016,2.54485030,.7132891,19.4569,316.9057,193.2824,126.9869,0,U,69675,999,46,.53892E-3,.440868E-2,-.53255E-6
